{"type": "FeatureCollection", "features": [ {"type": "Feature", "properties": {"norad_id": 40664, "name": "SKY MEXICO-1", "group": "intelsat", "lat": -0.01722923163695447, "lon": -22.356128339754175, "alt_km": 35781.65812883699, "timestamp": "2025-12-07T22:37:42.750837+00:00", "meta": {"OBJECT_NAME": "SKY MEXICO-1", "OBJECT_ID": "2015-026B", "EPOCH": "2025-12-07T06:24:41.475744", "MEAN_MOTION": 1.002711, "ECCENTRICITY": 0.00027926, "INCLINATION": 0.0165, "RA_OF_ASC_NODE": 41.3375, "ARG_OF_PERICENTER": 229.6948, "MEAN_ANOMALY": 182.6689, "EPHEMERIS_TYPE": 0, "CLASSIFICATION_TYPE": "U", "NORAD_CAT_ID": 40664, "ELEMENT_SET_NO": 999, "REV_AT_EPOCH": 3853, "BSTAR": 0, "MEAN_MOTION_DOT": -2.3e-06, "MEAN_MOTION_DDOT": 0}, "tle": {"line1": "1 40664U 15026B   25341.26714671 -.00000230  00000+0  00000+0 0  9997", "line2": "2 40664   0.0165  41.3375 0002792 229.6948 182.6689  1.00271100 38538"}}, "geometry": {"type": "Point", "coordinates": [-22.356128339754175, -0.01722923163695447]}}, {"type": "Feature", "properties": {"norad_id": 40874, "name": "INTELSAT 34 (IS-34)", "group": "intelsat", "lat": 0.01843913547757929, "lon": 0.8711209310468683, "alt_km": 35788.67336112374, "timestamp": "2025-12-07T22:37:42.750849+00:00", "meta": {"OBJECT_NAME": "INTELSAT 34 (IS-34)", "OBJECT_ID": "2015-039A", "EPOCH": "2025-12-07T04:41:25.219392", "MEAN_MOTION": 1.00268225, "ECCENTRICITY": 3.61e-05, "INCLINATION": 0.011, "RA_OF_ASC_NODE": 311.1439, "ARG_OF_PERICENTER": 225.1302, "MEAN_ANOMALY": 274.8039, "EPHEMERIS_TYPE": 0, "CLASSIFICATION_TYPE": "U", "NORAD_CAT_ID": 40874, "ELEMENT_SET_NO": 999, "REV_AT_EPOCH": 3770, "BSTAR": 0, "MEAN_MOTION_DOT": -2.81e-06, "MEAN_MOTION_DDOT": 0}, "tle": {"line1": "1 40874U 15039A   25341.19543078 -.00000281  00000+0  00000+0 0  9993", "line2": "2 40874   0.0110 311.1439 0000361 225.1302 274.8039  1.00268225 37700"}}, "geometry": {"type": "Point", "coordinates": [0.8711209310468683, 0.01843913547757929]}}, {"type": "Feature", "properties": {"norad_id": 41581, "name": "INTELSAT 31 (IS-31)", "group": "intelsat", "lat": 0.009061198900920319, "lon": -38.629466219838314, "alt_km": 35787.59421374041, "timestamp": "2025-12-07T22:37:42.750861+00:00", "meta": {"OBJECT_NAME": "INTELSAT 31 (IS-31)", "OBJECT_ID": "2016-035A", "EPOCH": "2025-12-07T04:37:21.756288", "MEAN_MOTION": 1.00278147, "ECCENTRICITY": 0.00022938, "INCLINATION": 0.0213, "RA_OF_ASC_NODE": 265.9898, "ARG_OF_PERICENTER": 305.3118, "MEAN_ANOMALY": 199.2065, "EPHEMERIS_TYPE": 0, "CLASSIFICATION_TYPE": "U", "NORAD_CAT_ID": 41581, "ELEMENT_SET_NO": 999, "REV_AT_EPOCH": 3475, "BSTAR": 0, "MEAN_MOTION_DOT": -1.47e-06, "MEAN_MOTION_DDOT": 0}, "tle": {"line1": "1 41581U 16035A   25341.19261292 -.00000147  00000+0  00000+0 0  9992", "line2": "2 41581   0.0213 265.9898 0002293 305.3118 199.2065  1.00278147 34752"}}, "geometry": {"type": "Point", "coordinates": [-38.629466219838314, 0.009061198900920319]}}, {"type": "Feature", "properties": {"norad_id": 41747, "name": "INTELSAT 36 (IS-36)", "group": "intelsat", "lat": 0.023064823947143747, "lon": 124.88445614263084, "alt_km": 35792.58922245688, "timestamp": "2025-12-07T22:37:42.750873+00:00", "meta": {"OBJECT_NAME": "INTELSAT 36 (IS-36)", "OBJECT_ID": "2016-053A", "EPOCH": "2025-12-07T02:03:38.498400", "MEAN_MOTION": 1.00271325, "ECCENTRICITY": 0.00015323, "INCLINATION": 0.0116, "RA_OF_ASC_NODE": 351.1153, "ARG_OF_PERICENTER": 320.467, "MEAN_ANOMALY": 223.9453, "EPHEMERIS_TYPE": 0, "CLASSIFICATION_TYPE": "U", "NORAD_CAT_ID": 41747, "ELEMENT_SET_NO": 999, "REV_AT_EPOCH": 3402, "BSTAR": 0, "MEAN_MOTION_DOT": -1.9e-07, "MEAN_MOTION_DDOT": 0}, "tle": {"line1": "1 41747U 16053A   25341.08586225 -.00000019  00000+0  00000+0 0  9998", "line2": "2 41747   0.0116 351.1153 0001532 320.4670 223.9453  1.00271325 34023"}}, "geometry": {"type": "Point", "coordinates": [124.88445614263084, 0.023064823947143747]}}, {"type": "Feature", "properties": {"norad_id": 41945, "name": "INTELSAT 32E (IS-32E)", "group": "intelsat", "lat": -0.010510101004515273, "lon": 13.20436795152495, "alt_km": 35785.33053086463, "timestamp": "2025-12-07T22:37:42.750885+00:00", "meta": {"OBJECT_NAME": "INTELSAT 32E (IS-32E)", "OBJECT_ID": "2017-007B", "EPOCH": "2025-12-07T06:34:55.496352", "MEAN_MOTION": 1.00271091, "ECCENTRICITY": 3.198e-05, "INCLINATION": 0.0298, "RA_OF_ASC_NODE": 69.1436, "ARG_OF_PERICENTER": 263.6407, "MEAN_ANOMALY": 159.07, "EPHEMERIS_TYPE": 0, "CLASSIFICATION_TYPE": "U", "NORAD_CAT_ID": 41945, "ELEMENT_SET_NO": 999, "REV_AT_EPOCH": 3230, "BSTAR": 0, "MEAN_MOTION_DOT": -2.64e-06, "MEAN_MOTION_DDOT": 0}, "tle": {"line1": "1 41945U 17007B   25341.27425343 -.00000264  00000+0  00000+0 0  9994", "line2": "2 41945   0.0298  69.1436 0000319 263.6407 159.0700  1.00271091 32305"}}, "geometry": {"type": "Point", "coordinates": [13.20436795152495, -0.010510101004515273]}}, {"type": "Feature", "properties": {"norad_id": 42818, "name": "INTELSAT 35E (IS-35E)", "group": "intelsat", "lat": 0.017017448966877284, "lon": 21.912898042457947, "alt_km": 35791.96053766229, "timestamp": "2025-12-07T22:37:42.750897+00:00", "meta": {"OBJECT_NAME": "INTELSAT 35E (IS-35E)", "OBJECT_ID": "2017-041A", "EPOCH": "2025-12-07T04:54:35.106336", "MEAN_MOTION": 1.00269935, "ECCENTRICITY": 0.00024039, "INCLINATION": 0.0176, "RA_OF_ASC_NODE": 6.0458, "ARG_OF_PERICENTER": 254.5081, "MEAN_ANOMALY": 214.8373, "EPHEMERIS_TYPE": 0, "CLASSIFICATION_TYPE": "U", "NORAD_CAT_ID": 42818, "ELEMENT_SET_NO": 999, "REV_AT_EPOCH": 3089, "BSTAR": 0, "MEAN_MOTION_DOT": -2.33e-06, "MEAN_MOTION_DDOT": 0}, "tle": {"line1": "1 42818U 17041A   25341.20457299 -.00000233  00000+0  00000+0 0  9996", "line2": "2 42818   0.0176   6.0458 0002403 254.5081 214.8373  1.00269935 30899"}}, "geometry": {"type": "Point", "coordinates": [21.912898042457947, 0.017017448966877284]}}, {"type": "Feature", "properties": {"norad_id": 42950, "name": "INTELSAT 37E (IS-37E)", "group": "intelsat", "lat": 0.03219833918440194, "lon": 38.40348149999639, "alt_km": 35798.50987860717, "timestamp": "2025-12-07T22:37:42.750909+00:00", "meta": {"OBJECT_NAME": "INTELSAT 37E (IS-37E)", "OBJECT_ID": "2017-059A", "EPOCH": "2025-12-07T06:42:02.314944", "MEAN_MOTION": 1.00270717, "ECCENTRICITY": 0.00034628, "INCLINATION": 0.0171, "RA_OF_ASC_NODE": 348.7934, "ARG_OF_PERICENTER": 263.8715, "MEAN_ANOMALY": 266.1525, "EPHEMERIS_TYPE": 0, "CLASSIFICATION_TYPE": "U", "NORAD_CAT_ID": 42950, "ELEMENT_SET_NO": 999, "REV_AT_EPOCH": 3014, "BSTAR": 0, "MEAN_MOTION_DOT": -1.36e-06, "MEAN_MOTION_DDOT": 0}, "tle": {"line1": "1 42950U 17059A   25341.27919346 -.00000136  00000+0  00000+0 0  9997", "line2": "2 42950   0.0171 348.7934 0003462 263.8715 266.1525  1.00270717 30146"}}, "geometry": {"type": "Point", "coordinates": [38.40348149999639, 0.03219833918440194]}}, {"type": "Feature", "properties": {"norad_id": 43632, "name": "AZERSPACE 2 (IS-38)", "group": "intelsat", "lat": 0.02913897352418956, "lon": 101.51388336033443, "alt_km": 35791.92713060884, "timestamp": "2025-12-07T22:37:42.750920+00:00", "meta": {"OBJECT_NAME": "AZERSPACE 2 (IS-38)", "OBJECT_ID": "2018-074A", "EPOCH": "2025-12-07T05:22:21.770112", "MEAN_MOTION": 1.00277128, "ECCENTRICITY": 0.00018137, "INCLINATION": 0.0163, "RA_OF_ASC_NODE": 325.3926, "ARG_OF_PERICENTER": 301.6911, "MEAN_ANOMALY": 294.8814, "EPHEMERIS_TYPE": 0, "CLASSIFICATION_TYPE": "U", "NORAD_CAT_ID": 43632, "ELEMENT_SET_NO": 999, "REV_AT_EPOCH": 2652, "BSTAR": 0, "MEAN_MOTION_DOT": 1.41e-06, "MEAN_MOTION_DDOT": 0}, "tle": {"line1": "1 43632U 18074A   25341.22386308  .00000141  00000+0  00000+0 0  9999", "line2": "2 43632   0.0163 325.3926 0001813 301.6911 294.8814  1.00277128 26523"}}, "geometry": {"type": "Point", "coordinates": [101.51388336033443, 0.02913897352418956]}}, {"type": "Feature", "properties": {"norad_id": 43633, "name": "HORIZONS-3E", "group": "intelsat", "lat": -0.017144321681521253, "lon": -134.61873168529786, "alt_km": 35784.49045902899, "timestamp": "2025-12-07T22:37:42.750932+00:00", "meta": {"OBJECT_NAME": "HORIZONS-3E", "OBJECT_ID": "2018-074B", "EPOCH": "2025-12-07T05:52:44.536224", "MEAN_MOTION": 1.0026846, "ECCENTRICITY": 0.00012673, "INCLINATION": 0.0421, "RA_OF_ASC_NODE": 183.6545, "ARG_OF_PERICENTER": 104.0548, "MEAN_ANOMALY": 45.7689, "EPHEMERIS_TYPE": 0, "CLASSIFICATION_TYPE": "U", "NORAD_CAT_ID": 43633, "ELEMENT_SET_NO": 999, "REV_AT_EPOCH": 2641, "BSTAR": 0, "MEAN_MOTION_DOT": -2.6e-07, "MEAN_MOTION_DDOT": 0}, "tle": {"line1": "1 43633U 18074B   25341.24495991 -.00000026  00000+0  00000+0 0  9994", "line2": "2 43633   0.0421 183.6545 0001267 104.0548  45.7689  1.00268460 26417"}}, "geometry": {"type": "Point", "coordinates": [-134.61873168529786, -0.017144321681521253]}}, {"type": "Feature", "properties": {"norad_id": 44333, "name": "AT&T T-16", "group": "intelsat", "lat": -0.029125281691178194, "lon": -44.48409486460655, "alt_km": 35788.652739579265, "timestamp": "2025-12-07T22:37:42.750943+00:00", "meta": {"OBJECT_NAME": "AT&T T-16", "OBJECT_ID": "2019-034A", "EPOCH": "2025-12-07T06:18:27.072576", "MEAN_MOTION": 1.00268339, "ECCENTRICITY": 4.47e-05, "INCLINATION": 0.0258, "RA_OF_ASC_NODE": 61.8789, "ARG_OF_PERICENTER": 105.7862, "MEAN_ANOMALY": 262.3772, "EPHEMERIS_TYPE": 0, "CLASSIFICATION_TYPE": "U", "NORAD_CAT_ID": 44333, "ELEMENT_SET_NO": 999, "REV_AT_EPOCH": 2370, "BSTAR": 0, "MEAN_MOTION_DOT": -1.1e-06, "MEAN_MOTION_DDOT": 0}, "tle": {"line1": "1 44333U 19034A   25341.26281334 -.00000110  00000+0  00000+0 0  9999", "line2": "2 44333   0.0258  61.8789 0000447 105.7862 262.3772  1.00268339 23700"}}, "geometry": {"type": "Point", "coordinates": [-44.48409486460655, -0.029125281691178194]}}]}